{
  "60517": {
    "name": "PlanetScope-60517",
    "line1": "1 60517U 24149BB  26068.71404192  .00017927  00000-0  48609-3 0  9995",
    "line2": "2 60517  97.3738 151.8410 0003273 287.2070  72.8817 15.37684247 87026",
    "meta": {
      "display_name": "PlanetScope-60517",
      "type": "optical",
      "swath_km": 8.0,
      "resolution_m": 4.0,
      "off_nadir_deg": 0,
      "altitude_km": 525.0,
      "priority": 10
    }
  },
  "60539": {
    "name": "ICEYE-60539",
    "line1": "1 60539U 24149BZ  26068.94244105  .00004424  00000-0  36668-3 0  9990",
    "line2": "2 60539  97.6823 147.2527 0002458  59.9226 300.2241 14.99337202 85241",
    "meta": {
      "display_name": "ICEYE-60539",
      "type": "sar",
      "swath_km": 5.0,
      "resolution_m": 1.0,
      "off_nadir_deg": 40,
      "altitude_km": 580.0,
      "priority": 10
    }
  },
  "60546": {
    "name": "ICEYE-60546",
    "line1": "1 60546U 24149CG  26068.72048823  .00003515  00000-0  29320-3 0  9990",
    "line2": "2 60546  97.6853 147.0953 0005274  52.5538 307.6164 14.99225125 85219",
    "meta": {
      "display_name": "ICEYE-60546",
      "type": "sar",
      "swath_km": 5.0,
      "resolution_m": 1.0,
      "off_nadir_deg": 40,
      "altitude_km": 580.0,
      "priority": 10
    }
  },
  "60548": {
    "name": "ICEYE-60548",
    "line1": "1 60548U 24149CJ  26068.71126509  .00005822  00000-0  45891-3 0  9993",
    "line2": "2 60548  97.7033 148.5516 0006063 122.8099 237.3710 15.01133440 85288",
    "meta": {
      "display_name": "ICEYE-60548",
      "type": "sar",
      "swath_km": 5.0,
      "resolution_m": 1.0,
      "off_nadir_deg": 40,
      "altitude_km": 580.0,
      "priority": 10
    }
  },
  "60549": {
    "name": "ICEYE-60549",
    "line1": "1 60549U 24149CK  26068.75921700  .00003253  00000-0  28352-3 0  9993",
    "line2": "2 60549  97.6865 146.8579 0005983  65.2061 294.9783 14.97556326 85195",
    "meta": {
      "display_name": "ICEYE-60549",
      "type": "sar",
      "swath_km": 5.0,
      "resolution_m": 1.0,
      "off_nadir_deg": 40,
      "altitude_km": 580.0,
      "priority": 10
    }
  },
  "62384": {
    "name": "ICEYE-62384",
    "line1": "1 62384U 24247H   26068.97025100  .00003927  00000-0  23939-3 0  9998",
    "line2": "2 62384  44.9971 166.7019 0002135 248.7393 111.3256 15.11999169 67155",
    "meta": {
      "display_name": "ICEYE-62384",
      "type": "sar",
      "swath_km": 5.0,
      "resolution_m": 1.0,
      "off_nadir_deg": 40,
      "altitude_km": 580.0,
      "priority": 10
    }
  },
  "62389": {
    "name": "ICEYE-62389",
    "line1": "1 62389U 24247N   26068.96299089  .00006747  00000-0  39816-3 0  9995",
    "line2": "2 62389  44.9951 166.5680 0001319 278.4890  81.5837 15.12232750 67155",
    "meta": {
      "display_name": "ICEYE-62389",
      "type": "sar",
      "swath_km": 5.0,
      "resolution_m": 1.0,
      "off_nadir_deg": 40,
      "altitude_km": 580.0,
      "priority": 10
    }
  },
  "62698": {
    "name": "ICEYE-62698",
    "line1": "1 62698U 25009CT  26068.80543818  .00002913  00000-0  29396-3 0  9993",
    "line2": "2 62698  97.7407 148.9068 0000626 137.7019 222.4248 14.91853550 62479",
    "meta": {
      "display_name": "ICEYE-62698",
      "type": "sar",
      "swath_km": 5.0,
      "resolution_m": 1.0,
      "off_nadir_deg": 40,
      "altitude_km": 580.0,
      "priority": 10
    }
  },
  "62700": {
    "name": "ICEYE-62700",
    "line1": "1 62700U 25009CV  26068.70496174  .00005098  00000-0  45867-3 0  9996",
    "line2": "2 62700  97.7110 149.7146 0001900  53.5813 306.5584 14.96071666 62532",
    "meta": {
      "display_name": "ICEYE-62700",
      "type": "sar",
      "swath_km": 5.0,
      "resolution_m": 1.0,
      "off_nadir_deg": 40,
      "altitude_km": 580.0,
      "priority": 10
    }
  },
  "62705": {
    "name": "ICEYE-62705",
    "line1": "1 62705U 25009DA  26068.72395651  .00005708  00000-0  45353-3 0  9999",
    "line2": "2 62705  97.8049 154.8158 0000884  73.7941 286.3380 15.00857928 62768",
    "meta": {
      "display_name": "ICEYE-62705",
      "type": "sar",
      "swath_km": 5.0,
      "resolution_m": 1.0,
      "off_nadir_deg": 40,
      "altitude_km": 580.0,
      "priority": 10
    }
  },
  "62707": {
    "name": "ICEYE-62707",
    "line1": "1 62707U 25009DC  26068.80692969  .00003886  00000-0  35708-3 0  9990",
    "line2": "2 62707  97.7094 149.5360 0002423 102.1776 257.9717 14.95383166 85088",
    "meta": {
      "display_name": "ICEYE-62707",
      "type": "sar",
      "swath_km": 5.0,
      "resolution_m": 1.0,
      "off_nadir_deg": 40,
      "altitude_km": 580.0,
      "priority": 10
    }
  },
  "63229": {
    "name": "SpaceEye-T",
    "line1": "1 63229U 25052V   26068.66010702  .00007097  00000-0  31827-3 0  9997",
    "line2": "2 63229  97.4063 322.8058 0006124 126.7741 233.4058 15.21501707 54702",
    "meta": {
      "display_name": "SpaceEye-T",
      "type": "optical",
      "swath_km": 12,
      "resolution_m": 0.25,
      "off_nadir_deg": 45,
      "altitude_km": 510,
      "priority": 1
    }
  },
  "66820": {
    "name": "KOMPSAT-7",
    "line1": "1 66820U 25279A   26068.87103100  .00004022  00000-0  31599-3 0  9997",
    "line2": "2 66820  97.6738  18.4558 0009895 343.5135  16.5766 15.01421798 14723",
    "meta": {
      "display_name": "KOMPSAT-7",
      "type": "optical",
      "swath_km": 15,
      "resolution_m": 0.3,
      "off_nadir_deg": 30,
      "altitude_km": 570,
      "priority": 2
    }
  }
}